CUTE-1 (CO-55)          
1 27844U 03031E   21002.59437441  .00000060  00000-0  46611-4 0  9992
2 27844  98.6815  13.3167 0009605 193.2407 166.8520 14.22279828908405
CUBESAT XI-IV (CO-57)   
1 27848U 03031J   21002.53845259  .00000038  00000-0  37038-4 0  9998
2 27848  98.6875  13.8295 0009261 206.6820 153.3882 14.21860912908263
CUBESAT XI-V            
1 28895U 05043F   21002.87669457  .00000160  00000-0  39551-4 0  9995
2 28895  98.0350 139.9925 0016966  16.6416 343.5340 14.63849436809781
CUTE-1.7+APD II (CO-65) 
1 32785U 08021C   21002.71255249  .00000336  00000-0  41660-4 0  9999
2 32785  97.5930 348.1896 0012716 186.1761 173.9302 14.88603238687511
AAUSAT-II               
1 32788U 08021F   21002.75136430  .00001133  00000-0  10756-3 0  9993
2 32788  97.4970   4.4715 0013303 104.5964 255.6733 14.95330103689098
DELFI-C3 (DO-64)        
1 32789U 08021G   21002.86623528  .00001889  00000-0  12539-3 0  9994
2 32789  97.3962  44.4986 0011682 359.4085   0.7128 15.08352175691869
SEEDS II (CO-66)        
1 32791U 08021J   21002.70193398  .00000517  00000-0  57310-4 0  9991
2 32791  97.5563 354.2311 0013824 152.7170 207.4778 14.91235334688157
SWISSCUBE               
1 35932U 09051B   21002.79379712  .00000158  00000-0  46703-4 0  9995
2 35932  98.6065 197.5183 0006734 231.1744 128.8852 14.56471809598847
BEESAT-1                
1 35933U 09051C   21002.76642283  .00000130  00000-0  40313-4 0  9990
2 35933  98.6045 199.3483 0004781 244.9410 115.1291 14.56537733598914
ITUPSAT1                
1 35935U 09051E   21002.80974862  .00000113  00000-0  37009-4 0  9997
2 35935  98.6149 199.5621 0007095 246.3068 113.7384 14.55676355598676
TISAT 1                 
1 36799U 10035E   21002.76186623  .00000427  00000-0  48689-4 0  9999
2 36799  98.2015 186.8853 0012986  41.6212 318.5991 14.91558337568632
M-CUBED & EXP-1 PRIME   
1 37855U 11061F   21002.81093014  .00003025  00000-0  15342-3 0  9996
2 37855 101.7260 200.3018 0168773 203.0874 156.2692 15.07030358501220
AEROCUBE 4.5A           
1 38767U 12048K   21002.63502835  .00000660  00000-0  68934-4 0  9999
2 38767  64.6669 333.4463 0136024  63.6057 297.8943 14.92525766 71523
AEROCUBE 4.5B           
1 38768U 12048L   21002.95251504  .00001080  00000-0  95480-4 0  9992
2 38768  64.6674 297.4252 0126917  57.9270 303.4093 14.96296594 71728
STRAND-1                
1 39090U 13009E   21002.89538935  .00000042  00000-0  29704-4 0  9991
2 39090  98.4371 208.8705 0010059  55.5404 304.6731 14.35162105411292
SOMP                    
1 39134U 13015E   21002.75314994  .00002158  00000-0  10333-3 0  9996
2 39134  64.8648 351.0015 0014174 219.2063 140.8040 15.21825913425996
BEESAT-3                
1 39135U 13015F   21002.87268290  .00001828  00000-0  96696-4 0  9997
2 39135  64.8669  17.1512 0020258 210.3324 149.6632 15.18787338425497
BEESAT-2                
1 39136U 13015G   21002.53880177  .00001457  00000-0  80044-4 0  9993
2 39136  64.8759  23.9538 0030386 264.2815  95.4846 15.18168372425325
NEE-01 PEGASO           
1 39151U 13018B   21002.81858514  .00000249  00000-0  39655-4 0  9994
2 39151  97.9771 106.3273 0017303 170.3941 189.7605 14.80264657415168
ESTCUBE 1               
1 39161U 13021C   21002.80906264  .00000235  00000-0  44826-4 0  9995
2 39161  97.9545  87.7222 0008861 328.7130  31.3547 14.72405633411370
POPACS 1                
1 39268U 13055D   21002.49312049  .00004188  00000-0  11328-3 0  9998
2 39268  81.0019  85.5086 0609141 350.4270   8.5706 14.41127585376643
POPACS 2                
1 39269U 13055E   21002.78306808  .00002698  00000-0  74830-4 0  9999
2 39269  81.0147 127.9496 0673127 100.2067 267.5680 14.26809140374397
POPACS 3                
1 39270U 13055F   21002.85622959  .00003172  00000-0  97500-4 0  9994
2 39270  81.0154 152.3356 0706734 169.8858 191.7454 14.17706090353376
ZACUBE-1 (TSHEPISOSAT)  
1 39417U 13066B   21002.90338506  .00000381  00000-0  53853-4 0  9999
2 39417  97.5781 355.9708 0058361 345.3683  14.5839 14.81399865384565
WNISAT-1                
1 39423U 13066H   21002.79789277  .00000164  00000-0  42230-4 0  9994
2 39423  97.8032 276.6491 0175130 354.2956   5.6238 14.53174067377388
TRITON-1                
1 39427U 13066M   21002.91006546  .00000232  00000-0  44595-4 0  9995
2 39427  97.7548 319.0643 0113932 159.5336 201.0490 14.68125179380926
GOMX-1                  
1 39430U 13066Q   21002.83532185  .00000338  00000-0  70411-4 0  9996
2 39430  97.8072 295.4731 0149488 276.7217  81.7002 14.59516778378886
CUBEBUG-2 (LO-74)       
1 39440U 13066AA  21002.92557513  .00000367  00000-0  57372-4 0  9992
2 39440  97.6553 340.6655 0081181  53.2949 307.5684 14.76131250382003
NEE-02 KRYSAOR          
1 39441U 13066AB  21002.87013203  .00000249  00000-0  42037-4 0  9991
2 39441  97.6639 338.0266 0082912  63.3928 297.5746 14.75101579381804
FUNCUBE-1 (AO-73)       
1 39444U 13066AE  21002.91990318  .00000464  00000-0  62907-4 0  9997
2 39444  97.5704 358.3082 0057208 336.5020  23.3582 14.82282545382915
UWE-3                   
1 39446U 13066AG  21002.91103037  .00000393  00000-0  58211-4 0  9997
2 39446  97.6183 347.7366 0070345  20.3157 340.0829 14.78667211382041
AEROCUBE 5A             
1 39465U 13072D   21002.67298788  .00005075  00000-0  39905-3 0  9996
2 39465 120.4956 165.7213 0265681  89.3175 273.8310 14.79063141 70807
AEROCUBE 5B             
1 39466U 13072E   21002.82626002  .00005275  00000-0  34911-3 0  9992
2 39466 120.4730 214.0968 0235905  99.6716 263.1072 14.89333403 71231
BRITE-CA1 (TORONTO)     
1 40020U 14033L   21002.76050955  .00000113  00000-0  27336-4 0  9999
2 40020  97.7298 185.5962 0087924 155.8302 204.7067 14.66694638349869
DUCHIFAT-1              
1 40021U 14033M   21002.86613639  .00000535  00000-0  59781-4 0  9992
2 40021  97.9591 301.4779 0012835 356.8239   3.2895 14.91130055355600
NANOSATC-BR1            
1 40024U 14033Q   21002.80055718  .00000504  00000-0  57792-4 0  9993
2 40024  97.9408 297.1074 0012277   2.5331 357.5947 14.90262967354921
QB50P1                  
1 40025U 14033R   21002.74420883  .00000492  00000-0  57886-4 0  9996
2 40025  97.9255 293.1010 0012698  10.2175 349.9298 14.89294933354758
QB50P2                  
1 40032U 14033Y   21002.85749209  .00000423  00000-0  51167-4 0  9992
2 40032  97.9116 290.2213 0012031   7.6422 352.4976 14.88812396354650
PERSEUS-M2              
1 40037U 14033AD  21002.83666909  .00000164  00000-0  24699-4 0  9992
2 40037  97.8906 283.6543 0014971  23.8125 336.3780 14.86611162354287
PERSEUS-M1              
1 40039U 14033AF  21002.82975407  .00000169  00000-0  25435-4 0  9993
2 40039  97.8857 282.1997 0014771  22.3252 337.8603 14.86232446354187
POLYITAN-1              
1 40042U 14033AJ  21002.84027303  .00000543  00000-0  63544-4 0  9991
2 40042  97.9343 293.8674 0014671   0.1508 359.9711 14.89069343354665
TIGRISAT                
1 40043U 14033AK  21002.46872716  .00000193  00000-0  35405-4 0  9992
2 40043  97.6852 214.8533 0061223  75.5678 285.2315 14.74460912351371
AEROCUBE 6A             
1 40045U 14033AM  21002.84125486  .00000357  00000-0  57874-4 0  9997
2 40045  97.7104 221.6713 0058965  64.9425 295.7890 14.75707277351510
AEROCUBE 6B             
1 40046U 14033AN  21002.85124662  .00000387  00000-0  62207-4 0  9993
2 40046  97.7005 220.7185 0058110  64.0726 296.6457 14.75712904351513
UKUBE-1                 
1 40074U 14037F   21002.83547289  .00000500  00000-0  66657-4 0  9990
2 40074  98.4430 208.9933 0003949 187.8004 172.3138 14.84424144351338
BRITE-PL2 (HEWELIUSZ)   
1 40119U 14049B   21002.83034294  .00000204  00000-0  30512-4 0  9992
2 40119  97.8924  99.0698 0017581 173.0796 187.0665 14.84583761345273
FIREBIRD 4              
1 40378U 15003C   21002.90567469  .00002504  00000-0  96254-4 0  9993
2 40378  99.0846 110.0009 0120949   7.7535 352.5528 15.21225100327611
GRIFEX                  
1 40379U 15003D   21002.91341435  .00001571  00000-0  67840-4 0  9990
2 40379  99.0855 100.6645 0131195  36.6059 324.4046 15.17215994327078
EXOCUBE (CP10)          
1 40380U 15003E   21002.79643948  .00001540  00000-0  69810-4 0  9997
2 40380  99.0903  95.5799 0136812  53.8669 307.5129 15.15042947326724
AEROCUBE 8A             
1 40659U 15025J   21002.51162493  .00024626  00000-0  20381-3 0  9990
2 40659  55.0135  87.1316 0085391 337.8905  21.8461 15.65420977 74630
AEROCUBE 8B             
1 40660U 15025K   21002.43463044  .00025369  00000-0  20585-3 0  9990
2 40660  55.0107  84.7705 0084346 340.2078  19.5695 15.65969159 74648
TIANWANG 1C (TW-1C)     
1 40926U 15051B   21002.86794192  .00092810  00000-0  38908-3 0  9995
2 40926  97.0535  63.3853 0003078  50.2964   7.3065 15.85316903298353
TIANWANG 1A (TW-1A)     
1 40928U 15051D   21002.79562446  .00005259  00000-0  11639-3 0  9997
2 40928  97.0921  31.7325 0010133 168.7541 306.9704 15.44170675296112
EXACTVIEW 9             
1 40936U 15052G   21002.42151922  .00000829  00000-0  26638-4 0  9994
2 40936   6.0048   1.4762 0010572 201.9584 158.0090 14.76638744284643
AEROCUBE 5C             
1 40965U 15058B   21002.95815244  .00000269  00000-0  49654-4 0  9995
2 40965  64.7774 259.6329 0187085   3.0821 357.1387 14.74645814 70724
AEROCUBE 7              
1 40966U 15058C   21002.96424371  .00000368  00000-0  60512-4 0  9990
2 40966  64.7772 257.8042 0186045   2.7378 357.4697 14.74974380 70734
ATHENOXAT 1             
1 41168U 15077C   21002.73749775  .00003323  00000-0  13609-3 0  9997
2 41168  14.9893  38.7371 0011355  23.5706 122.9538 15.15035451279607
GALASSIA                
1 41170U 15077E   21002.72125017  .00002591  00000-0  97220-4 0  9994
2 41170  14.9903  30.0243 0012358  51.6437 308.4994 15.15303814279600
VELOX-II                
1 41171U 15077F   21002.82568593  .00002125  00000-0  81674-4 0  9995
2 41171  14.9916  80.6865 0008683 295.6651  64.2772 15.12124342279212
